[{"OBJECT_NAME":"ONEWEB-0627","OBJECT_ID":"2023-004AE","EPOCH":"2025-11-18T06:19:01.953120","MEAN_MOTION":13.17648562,"ECCENTRICITY":0.0001181,"INCLINATION":87.9127,"RA_OF_ASC_NODE":47.8241,"ARG_OF_PERICENTER":103.3283,"MEAN_ANOMALY":256.798,"EPHEMERIS_TYPE":0,"CLASSIFICATION_TYPE":"U","NORAD_CAT_ID":55168,"ELEMENT_SET_NO":999,"REV_AT_EPOCH":13980,"BSTAR":-0.00039336,"MEAN_MOTION_DOT":-1.4e-6,"MEAN_MOTION_DDOT":0},{"OBJECT_NAME":"ONEWEB-0628","OBJECT_ID":"2023-004AF","EPOCH":"2025-11-18T05:27:00.124128","MEAN_MOTION":13.12441502,"ECCENTRICITY":0.0001223,"INCLINATION":87.8971,"RA_OF_ASC_NODE":32.5588,"ARG_OF_PERICENTER":119.4176,"MEAN_ANOMALY":240.7074,"EPHEMERIS_TYPE":0,"CLASSIFICATION_TYPE":"U","NORAD_CAT_ID":55169,"ELEMENT_SET_NO":999,"REV_AT_EPOCH":14036,"BSTAR":-0.0011826,"MEAN_MOTION_DOT":-4.13e-6,"MEAN_MOTION_DDOT":0},{"OBJECT_NAME":"ONEWEB-0629","OBJECT_ID":"2023-004AG","EPOCH":"2025-11-18T05:43:48.357696","MEAN_MOTION":13.17650925,"ECCENTRICITY":0.0001663,"INCLINATION":87.9135,"RA_OF_ASC_NODE":47.8262,"ARG_OF_PERICENTER":113.6128,"MEAN_ANOMALY":246.5178,"EPHEMERIS_TYPE":0,"CLASSIFICATION_TYPE":"U","NORAD_CAT_ID":55170,"ELEMENT_SET_NO":999,"REV_AT_EPOCH":13980,"BSTAR":0.00016729,"MEAN_MOTION_DOT":7.8e-7,"MEAN_MOTION_DDOT":0},{"OBJECT_NAME":"ONEWEB-0631","OBJECT_ID":"2023-004AH","EPOCH":"2025-11-18T03:56:48.753888","MEAN_MOTION":13.18686486,"ECCENTRICITY":0.0001786,"INCLINATION":87.9215,"RA_OF_ASC_NODE":17.3456,"ARG_OF_PERICENTER":80.949,"MEAN_ANOMALY":279.1844,"EPHEMERIS_TYPE":0,"CLASSIFICATION_TYPE":"U","NORAD_CAT_ID":55171,"ELEMENT_SET_NO":999,"REV_AT_EPOCH":14186,"BSTAR":-0.00076626,"MEAN_MOTION_DOT":-2.89e-6,"MEAN_MOTION_DDOT":0},{"OBJECT_NAME":"ONEWEB-0709","OBJECT_ID":"2023-004AJ","EPOCH":"2025-11-18T05:51:01.620864","MEAN_MOTION":13.11417948,"ECCENTRICITY":0.0002216,"INCLINATION":87.8862,"RA_OF_ASC_NODE":63.0943,"ARG_OF_PERICENTER":81.6144,"MEAN_ANOMALY":278.5235,"EPHEMERIS_TYPE":0,"CLASSIFICATION_TYPE":"U","NORAD_CAT_ID":55172,"ELEMENT_SET_NO":999,"REV_AT_EPOCH":13822,"BSTAR":-0.00098888,"MEAN_MOTION_DOT":-3.38e-6,"MEAN_MOTION_DDOT":0},{"OBJECT_NAME":"ONEWEB-0710","OBJECT_ID":"2023-004AK","EPOCH":"2025-11-18T11:32:29.517216","MEAN_MOTION":13.17649234,"ECCENTRICITY":0.0001541,"INCLINATION":87.9131,"RA_OF_ASC_NODE":47.7721,"ARG_OF_PERICENTER":101.6239,"MEAN_ANOMALY":258.5066,"EPHEMERIS_TYPE":0,"CLASSIFICATION_TYPE":"U","NORAD_CAT_ID":55173,"ELEMENT_SET_NO":999,"REV_AT_EPOCH":13983,"BSTAR":-0.00066973,"MEAN_MOTION_DOT":-2.47e-6,"MEAN_MOTION_DDOT":0},{"OBJECT_NAME":"ONEWEB-0711","OBJECT_ID":"2023-004AL","EPOCH":"2025-11-18T08:49:15.665088","MEAN_MOTION":13.11414998,"ECCENTRICITY":8.69e-5,"INCLINATION":87.8871,"RA_OF_ASC_NODE":63.0414,"ARG_OF_PERICENTER":108.4315,"MEAN_ANOMALY":251.6907,"EPHEMERIS_TYPE":0,"CLASSIFICATION_TYPE":"U","NORAD_CAT_ID":55174,"ELEMENT_SET_NO":999,"REV_AT_EPOCH":13820,"BSTAR":0.00022235,"MEAN_MOTION_DOT":9.1e-7,"MEAN_MOTION_DDOT":0},{"OBJECT_NAME":"ONEWEB-0713","OBJECT_ID":"2023-004AM","EPOCH":"2025-11-18T05:36:22.955328","MEAN_MOTION":13.11405388,"ECCENTRICITY":0.000127,"INCLINATION":87.8872,"RA_OF_ASC_NODE":63.073,"ARG_OF_PERICENTER":102.9782,"MEAN_ANOMALY":257.1487,"EPHEMERIS_TYPE":0,"CLASSIFICATION_TYPE":"U","NORAD_CAT_ID":55175,"ELEMENT_SET_NO":999,"REV_AT_EPOCH":13817,"BSTAR":-0.003934,"MEAN_MOTION_DOT":-1.381e-5,"MEAN_MOTION_DDOT":0},{"OBJECT_NAME":"ONEWEB-0715","OBJECT_ID":"2023-004AN","EPOCH":"2025-11-18T07:18:54.491904","MEAN_MOTION":13.11415029,"ECCENTRICITY":0.0001781,"INCLINATION":87.8867,"RA_OF_ASC_NODE":63.0574,"ARG_OF_PERICENTER":78.1732,"MEAN_ANOMALY":281.9595,"EPHEMERIS_TYPE":0,"CLASSIFICATION_TYPE":"U","NORAD_CAT_ID":55176,"ELEMENT_SET_NO":999,"REV_AT_EPOCH":13822,"BSTAR":-0.0011935,"MEAN_MOTION_DOT":-4.1e-6,"MEAN_MOTION_DDOT":0},{"OBJECT_NAME":"ONEWEB-0716","OBJECT_ID":"2023-004AP","EPOCH":"2025-11-18T05:54:43.674912","MEAN_MOTION":13.17651669,"ECCENTRICITY":0.0001918,"INCLINATION":87.9132,"RA_OF_ASC_NODE":47.8185,"ARG_OF_PERICENTER":106.3387,"MEAN_ANOMALY":253.7955,"EPHEMERIS_TYPE":0,"CLASSIFICATION_TYPE":"U","NORAD_CAT_ID":55177,"ELEMENT_SET_NO":999,"REV_AT_EPOCH":13980,"BSTAR":0.00038942,"MEAN_MOTION_DOT":1.64e-6,"MEAN_MOTION_DDOT":0},{"OBJECT_NAME":"ONEWEB-0717","OBJECT_ID":"2023-004AQ","EPOCH":"2025-11-18T05:30:25.072704","MEAN_MOTION":13.17651812,"ECCENTRICITY":0.0001003,"INCLINATION":87.9144,"RA_OF_ASC_NODE":47.7909,"ARG_OF_PERICENTER":94.6156,"MEAN_ANOMALY":265.509,"EPHEMERIS_TYPE":0,"CLASSIFICATION_TYPE":"U","NORAD_CAT_ID":55178,"ELEMENT_SET_NO":999,"REV_AT_EPOCH":13985,"BSTAR":0.00028142,"MEAN_MOTION_DOT":1.22e-6,"MEAN_MOTION_DDOT":0},{"OBJECT_NAME":"ONEWEB-0719","OBJECT_ID":"2023-004AR","EPOCH":"2025-11-18T05:45:00.049824","MEAN_MOTION":13.17648345,"ECCENTRICITY":0.0001823,"INCLINATION":87.9145,"RA_OF_ASC_NODE":47.7715,"ARG_OF_PERICENTER":109.8148,"MEAN_ANOMALY":250.318,"EPHEMERIS_TYPE":0,"CLASSIFICATION_TYPE":"U","NORAD_CAT_ID":55179,"ELEMENT_SET_NO":999,"REV_AT_EPOCH":13980,"BSTAR":-6.7548e-5,"MEAN_MOTION_DOT":-1.3e-7,"MEAN_MOTION_DDOT":0},{"OBJECT_NAME":"ONEWEB-0530","OBJECT_ID":"2023-029A","EPOCH":"2025-11-18T11:40:41.000160","MEAN_MOTION":13.20772748,"ECCENTRICITY":0.000135,"INCLINATION":87.918,"RA_OF_ASC_NODE":316.5055,"ARG_OF_PERICENTER":94.3558,"MEAN_ANOMALY":265.7729,"EPHEMERIS_TYPE":0,"CLASSIFICATION_TYPE":"U","NORAD_CAT_ID":55796,"ELEMENT_SET_NO":999,"REV_AT_EPOCH":13333,"BSTAR":0.00013534,"MEAN_MOTION_DOT":6.8e-7,"MEAN_MOTION_DDOT":0},{"OBJECT_NAME":"ONEWEB-0534","OBJECT_ID":"2023-029B","EPOCH":"2025-11-18T11:22:30.315936","MEAN_MOTION":13.20772659,"ECCENTRICITY":0.0001893,"INCLINATION":87.9176,"RA_OF_ASC_NODE":316.5092,"ARG_OF_PERICENTER":93.6852,"MEAN_ANOMALY":266.4497,"EPHEMERIS_TYPE":0,"CLASSIFICATION_TYPE":"U","NORAD_CAT_ID":55797,"ELEMENT_SET_NO":999,"REV_AT_EPOCH":13333,"BSTAR":0.00055697,"MEAN_MOTION_DOT":2.39e-6,"MEAN_MOTION_DDOT":0},{"OBJECT_NAME":"ONEWEB-0556","OBJECT_ID":"2023-029C","EPOCH":"2025-11-18T11:31:34.196160","MEAN_MOTION":13.20770595,"ECCENTRICITY":0.0002056,"INCLINATION":87.918,"RA_OF_ASC_NODE":316.5068,"ARG_OF_PERICENTER":117.8073,"MEAN_ANOMALY":242.3269,"EPHEMERIS_TYPE":0,"CLASSIFICATION_TYPE":"U","NORAD_CAT_ID":55798,"ELEMENT_SET_NO":999,"REV_AT_EPOCH":13333,"BSTAR":0.00019219,"MEAN_MOTION_DOT":9.1e-7,"MEAN_MOTION_DDOT":0},{"OBJECT_NAME":"ONEWEB-0562","OBJECT_ID":"2023-029D","EPOCH":"2025-11-18T11:13:22.419840","MEAN_MOTION":13.20771354,"ECCENTRICITY":0.0001211,"INCLINATION":87.9175,"RA_OF_ASC_NODE":316.4927,"ARG_OF_PERICENTER":115.4199,"MEAN_ANOMALY":244.706,"EPHEMERIS_TYPE":0,"CLASSIFICATION_TYPE":"U","NORAD_CAT_ID":55799,"ELEMENT_SET_NO":999,"REV_AT_EPOCH":13333,"BSTAR":-0.00053737,"MEAN_MOTION_DOT":-2.06e-6,"MEAN_MOTION_DDOT":0},{"OBJECT_NAME":"ONEWEB-0563","OBJECT_ID":"2023-029E","EPOCH":"2025-11-18T09:15:14.036832","MEAN_MOTION":13.20772082,"ECCENTRICITY":0.0002056,"INCLINATION":87.9182,"RA_OF_ASC_NODE":316.5355,"ARG_OF_PERICENTER":95.3884,"MEAN_ANOMALY":264.7484,"EPHEMERIS_TYPE":0,"CLASSIFICATION_TYPE":"U","NORAD_CAT_ID":55800,"ELEMENT_SET_NO":999,"REV_AT_EPOCH":13331,"BSTAR":6.0644e-5,"MEAN_MOTION_DOT":3.8e-7,"MEAN_MOTION_DDOT":0}]
