ONEWEB-0627             
1 55168U 23004AE  25322.26321705 -.00000140  00000+0 -39336-3 0  9997
2 55168  87.9127  47.8241 0001181 103.3283 256.7980 13.17648562139809
ONEWEB-0628             
1 55169U 23004AF  25322.22708477 -.00000413  00000+0 -11826-2 0  9995
2 55169  87.8971  32.5588 0001223 119.4176 240.7074 13.12441502140367
ONEWEB-0629             
1 55170U 23004AG  25322.23875414  .00000078  00000+0  16729-3 0  9997
2 55170  87.9135  47.8262 0001663 113.6128 246.5178 13.17650925139803
ONEWEB-0631             
1 55171U 23004AH  25322.16445317 -.00000289  00000+0 -76626-3 0  9993
2 55171  87.9215  17.3456 0001786  80.9490 279.1844 13.18686486141867
ONEWEB-0709             
1 55172U 23004AJ  25322.24376876 -.00000338  00000+0 -98888-3 0  9995
2 55172  87.8862  63.0943 0002216  81.6144 278.5235 13.11417948138228
ONEWEB-0710             
1 55173U 23004AK  25322.48089719 -.00000247  00000+0 -66973-3 0  9998
2 55173  87.9131  47.7721 0001541 101.6239 258.5066 13.17649234139839
ONEWEB-0711             
1 55174U 23004AL  25322.36754242  .00000091  00000+0  22235-3 0  9994
2 55174  87.8871  63.0414 0000869 108.4315 251.6907 13.11414998138201
ONEWEB-0713             
1 55175U 23004AM  25322.23359902 -.00001381  00000+0 -39340-2 0  9994
2 55175  87.8872  63.0730 0001270 102.9782 257.1487 13.11405388138171
ONEWEB-0715             
1 55176U 23004AN  25322.30479736 -.00000410  00000+0 -11935-2 0  9993
2 55176  87.8867  63.0574 0001781  78.1732 281.9595 13.11415029138222
ONEWEB-0716             
1 55177U 23004AP  25322.24633883  .00000164  00000+0  38942-3 0  9994
2 55177  87.9132  47.8185 0001918 106.3387 253.7955 13.17651669139809
ONEWEB-0717             
1 55178U 23004AQ  25322.22945686  .00000122  00000+0  28142-3 0  9995
2 55178  87.9144  47.7909 0001003  94.6156 265.5090 13.17651812139850
ONEWEB-0719             
1 55179U 23004AR  25322.23958391 -.00000013  00000+0 -67548-4 0  9999
2 55179  87.9145  47.7715 0001823 109.8148 250.3180 13.17648345139801
ONEWEB-0530             
1 55796U 23029A   25322.48658565  .00000068  00000+0  13534-3 0  9991
2 55796  87.9180 316.5055 0001350  94.3558 265.7729 13.20772748133337
ONEWEB-0534             
1 55797U 23029B   25322.47396199  .00000239  00000+0  55697-3 0  9999
2 55797  87.9176 316.5092 0001893  93.6852 266.4497 13.20772659133336
ONEWEB-0556             
1 55798U 23029C   25322.48025690  .00000091  00000+0  19219-3 0  9992
2 55798  87.9180 316.5068 0002056 117.8073 242.3269 13.20770595133338
ONEWEB-0562             
1 55799U 23029D   25322.46762060 -.00000206  00000+0 -53737-3 0  9993
2 55799  87.9175 316.4927 0001211 115.4199 244.7060 13.20771354133330
ONEWEB-0563             
1 55800U 23029E   25322.38557913  .00000038  00000+0  60644-4 0  9993
2 55800  87.9182 316.5355 0002056  95.3884 264.7484 13.20772082133311
